{"type": "FeatureCollection", "features": [ {"type": "Feature", "properties": {"norad_id": 29878, "name": "FENGYUN 1C DEB", "group": "fengyun-1c-debris", "lat": -56.59162487791725, "lon": -40.71799044115059, "alt_km": 533.914767604977, "timestamp": "2025-12-02T10:50:47.545977+00:00", "meta": {"OBJECT_NAME": "FENGYUN 1C DEB", "OBJECT_ID": "1999-025FY", "EPOCH": "2025-12-02T00:13:46.362432", "MEAN_MOTION": 15.06097229, "ECCENTRICITY": 0.0033647, "INCLINATION": 96.952, "RA_OF_ASC_NODE": 149.5435, "ARG_OF_PERICENTER": 213.0316, "MEAN_ANOMALY": 146.8811, "EPHEMERIS_TYPE": 0, "CLASSIFICATION_TYPE": "U", "NORAD_CAT_ID": 29878, "ELEMENT_SET_NO": 999, "REV_AT_EPOCH": 98486, "BSTAR": 0.0082421, "MEAN_MOTION_DOT": 0.00123879, "MEAN_MOTION_DDOT": 0}, "tle": {"line1": "1 29878U 99025FY  25336.00956438  .00123879  00000+0  82421-2 0  9991", "line2": "2 29878  96.9520 149.5435 0033647 213.0316 146.8811 15.06097229984862"}}, "geometry": {"type": "Point", "coordinates": [-40.71799044115059, -56.59162487791725]}}, {"type": "Feature", "properties": {"norad_id": 29880, "name": "FENGYUN 1C DEB", "group": "fengyun-1c-debris", "lat": 8.720839970026443, "lon": -105.12043894352854, "alt_km": 1001.7431611627244, "timestamp": "2025-12-02T10:50:47.545987+00:00", "meta": {"OBJECT_NAME": "FENGYUN 1C DEB", "OBJECT_ID": "1999-025GA", "EPOCH": "2025-12-02T00:32:43.528128", "MEAN_MOTION": 13.93859125, "ECCENTRICITY": 0.0231015, "INCLINATION": 98.1938, "RA_OF_ASC_NODE": 255.7649, "ARG_OF_PERICENTER": 131.5212, "MEAN_ANOMALY": 247.1388, "EPHEMERIS_TYPE": 0, "CLASSIFICATION_TYPE": "U", "NORAD_CAT_ID": 29880, "ELEMENT_SET_NO": 999, "REV_AT_EPOCH": 95413, "BSTAR": 0.00095933, "MEAN_MOTION_DOT": 1.543e-05, "MEAN_MOTION_DDOT": 0}, "tle": {"line1": "1 29880U 99025GA  25336.02272602  .00001543  00000+0  95933-3 0  9996", "line2": "2 29880  98.1938 255.7649 0231015 131.5212 247.1388 13.93859125954133"}}, "geometry": {"type": "Point", "coordinates": [-105.12043894352854, 8.720839970026443]}}, {"type": "Feature", "properties": {"norad_id": 29881, "name": "FENGYUN 1C DEB", "group": "fengyun-1c-debris", "lat": -66.07807467090731, "lon": -30.01288691492775, "alt_km": 1254.096611056274, "timestamp": "2025-12-02T10:50:47.545997+00:00", "meta": {"OBJECT_NAME": "FENGYUN 1C DEB", "OBJECT_ID": "1999-025GB", "EPOCH": "2025-12-01T21:19:42.686400", "MEAN_MOTION": 13.59549214, "ECCENTRICITY": 0.029156, "INCLINATION": 98.7209, "RA_OF_ASC_NODE": 309.2416, "ARG_OF_PERICENTER": 100.0143, "MEAN_ANOMALY": 317.9156, "EPHEMERIS_TYPE": 0, "CLASSIFICATION_TYPE": "U", "NORAD_CAT_ID": 29881, "ELEMENT_SET_NO": 999, "REV_AT_EPOCH": 93087, "BSTAR": 0.0021795, "MEAN_MOTION_DOT": 2.101e-05, "MEAN_MOTION_DDOT": 0}, "tle": {"line1": "1 29881U 99025GB  25335.88868850  .00002101  00000+0  21795-2 0  9991", "line2": "2 29881  98.7209 309.2416 0291560 100.0143 317.9156 13.59549214930874"}}, "geometry": {"type": "Point", "coordinates": [-30.01288691492775, -66.07807467090731]}}, {"type": "Feature", "properties": {"norad_id": 29884, "name": "FENGYUN 1C DEB", "group": "fengyun-1c-debris", "lat": 29.224464329890765, "lon": -165.9225535995735, "alt_km": 725.8032849336378, "timestamp": "2025-12-02T10:50:47.546007+00:00", "meta": {"OBJECT_NAME": "FENGYUN 1C DEB", "OBJECT_ID": "1999-025GE", "EPOCH": "2025-12-02T01:56:00.568896", "MEAN_MOTION": 14.40225225, "ECCENTRICITY": 0.0044414, "INCLINATION": 99.6044, "RA_OF_ASC_NODE": 8.2256, "ARG_OF_PERICENTER": 167.3722, "MEAN_ANOMALY": 218.5427, "EPHEMERIS_TYPE": 0, "CLASSIFICATION_TYPE": "U", "NORAD_CAT_ID": 29884, "ELEMENT_SET_NO": 999, "REV_AT_EPOCH": 98396, "BSTAR": 0.00078815, "MEAN_MOTION_DOT": 2.47e-05, "MEAN_MOTION_DDOT": 0}, "tle": {"line1": "1 29884U 99025GE  25336.08056214  .00002470  00000+0  78815-3 0  9995", "line2": "2 29884  99.6044   8.2256 0044414 167.3722 218.5427 14.40225225983964"}}, "geometry": {"type": "Point", "coordinates": [-165.9225535995735, 29.224464329890765]}}, {"type": "Feature", "properties": {"norad_id": 29885, "name": "FENGYUN 1C DEB", "group": "fengyun-1c-debris", "lat": -77.9617532602125, "lon": -44.28986032227691, "alt_km": 845.7761604154684, "timestamp": "2025-12-02T10:50:47.546017+00:00", "meta": {"OBJECT_NAME": "FENGYUN 1C DEB", "OBJECT_ID": "1999-025GF", "EPOCH": "2025-12-01T20:17:51.656928", "MEAN_MOTION": 14.13571871, "ECCENTRICITY": 0.0117722, "INCLINATION": 98.3539, "RA_OF_ASC_NODE": 271.5905, "ARG_OF_PERICENTER": 195.6724, "MEAN_ANOMALY": 238.5656, "EPHEMERIS_TYPE": 0, "CLASSIFICATION_TYPE": "U", "NORAD_CAT_ID": 29885, "ELEMENT_SET_NO": 999, "REV_AT_EPOCH": 97303, "BSTAR": 0.00015828, "MEAN_MOTION_DOT": 2.79e-06, "MEAN_MOTION_DDOT": 0}, "tle": {"line1": "1 29885U 99025GF  25335.84573677  .00000279  00000+0  15828-3 0  9996", "line2": "2 29885  98.3539 271.5905 0117722 195.6724 238.5656 14.13571871973039"}}, "geometry": {"type": "Point", "coordinates": [-44.28986032227691, -77.9617532602125]}}, {"type": "Feature", "properties": {"norad_id": 29887, "name": "FENGYUN 1C DEB", "group": "fengyun-1c-debris", "lat": 26.372946966895697, "lon": 53.606314506648445, "alt_km": 572.7878534246811, "timestamp": "2025-12-02T10:50:47.546028+00:00", "meta": {"OBJECT_NAME": "FENGYUN 1C DEB", "OBJECT_ID": "1999-025GH", "EPOCH": "2025-12-02T04:19:01.466112", "MEAN_MOTION": 14.33632787, "ECCENTRICITY": 0.0287797, "INCLINATION": 98.7193, "RA_OF_ASC_NODE": 57.6957, "ARG_OF_PERICENTER": 30.2895, "MEAN_ANOMALY": 33.3433, "EPHEMERIS_TYPE": 0, "CLASSIFICATION_TYPE": "U", "NORAD_CAT_ID": 29887, "ELEMENT_SET_NO": 999, "REV_AT_EPOCH": 97823, "BSTAR": 0.00056359, "MEAN_MOTION_DOT": 2.431e-05, "MEAN_MOTION_DDOT": 0}, "tle": {"line1": "1 29887U 99025GH  25336.17987808  .00002431  00000+0  56359-3 0  9996", "line2": "2 29887  98.7193  57.6957 0287797  30.2895  33.3433 14.33632787978231"}}, "geometry": {"type": "Point", "coordinates": [53.606314506648445, 26.372946966895697]}}, {"type": "Feature", "properties": {"norad_id": 29888, "name": "FENGYUN 1C DEB", "group": "fengyun-1c-debris", "lat": -73.24551674255389, "lon": -43.787425375418955, "alt_km": 1017.258639634555, "timestamp": "2025-12-02T10:50:47.546038+00:00", "meta": {"OBJECT_NAME": "FENGYUN 1C DEB", "OBJECT_ID": "1999-025GJ", "EPOCH": "2025-12-02T02:53:10.405248", "MEAN_MOTION": 14.19820639, "ECCENTRICITY": 0.0275341, "INCLINATION": 99.1922, "RA_OF_ASC_NODE": 168.407, "ARG_OF_PERICENTER": 55.4903, "MEAN_ANOMALY": 307.1943, "EPHEMERIS_TYPE": 0, "CLASSIFICATION_TYPE": "U", "NORAD_CAT_ID": 29888, "ELEMENT_SET_NO": 999, "REV_AT_EPOCH": 97353, "BSTAR": 0.00039055, "MEAN_MOTION_DOT": 1.158e-05, "MEAN_MOTION_DDOT": 0}, "tle": {"line1": "1 29888U 99025GJ  25336.12025932  .00001158  00000+0  39055-3 0  9992", "line2": "2 29888  99.1922 168.4070 0275341  55.4903 307.1943 14.19820639973530"}}, "geometry": {"type": "Point", "coordinates": [-43.787425375418955, -73.24551674255389]}}, {"type": "Feature", "properties": {"norad_id": 29889, "name": "FENGYUN 1C DEB", "group": "fengyun-1c-debris", "lat": -34.34598358893373, "lon": -93.31957085128778, "alt_km": 947.0619956671071, "timestamp": "2025-12-02T10:50:47.546048+00:00", "meta": {"OBJECT_NAME": "FENGYUN 1C DEB", "OBJECT_ID": "1999-025GK", "EPOCH": "2025-12-01T20:48:54.180000", "MEAN_MOTION": 14.13490295, "ECCENTRICITY": 0.0154789, "INCLINATION": 99.4767, "RA_OF_ASC_NODE": 92.6151, "ARG_OF_PERICENTER": 69.2519, "MEAN_ANOMALY": 51.1866, "EPHEMERIS_TYPE": 0, "CLASSIFICATION_TYPE": "U", "NORAD_CAT_ID": 29889, "ELEMENT_SET_NO": 999, "REV_AT_EPOCH": 97165, "BSTAR": 0.00031339, "MEAN_MOTION_DOT": 6.13e-06, "MEAN_MOTION_DDOT": 0}, "tle": {"line1": "1 29889U 99025GK  25335.86729375  .00000613  00000+0  31339-3 0  9997", "line2": "2 29889  99.4767  92.6151 0154789  69.2519  51.1866 14.13490295971653"}}, "geometry": {"type": "Point", "coordinates": [-93.31957085128778, -34.34598358893373]}}, {"type": "Feature", "properties": {"norad_id": 29890, "name": "FENGYUN 1C DEB", "group": "fengyun-1c-debris", "lat": 79.5795727073573, "lon": 32.063520206728406, "alt_km": 797.568438365276, "timestamp": "2025-12-02T10:50:47.546059+00:00", "meta": {"OBJECT_NAME": "FENGYUN 1C DEB", "OBJECT_ID": "1999-025GL", "EPOCH": "2025-12-01T22:38:00.110112", "MEAN_MOTION": 14.22969442, "ECCENTRICITY": 0.0014922, "INCLINATION": 99.4675, "RA_OF_ASC_NODE": 96.6599, "ARG_OF_PERICENTER": 102.8991, "MEAN_ANOMALY": 257.3853, "EPHEMERIS_TYPE": 0, "CLASSIFICATION_TYPE": "U", "NORAD_CAT_ID": 29890, "ELEMENT_SET_NO": 999, "REV_AT_EPOCH": 97297, "BSTAR": 0.00094751, "MEAN_MOTION_DOT": 2.085e-05, "MEAN_MOTION_DDOT": 0}, "tle": {"line1": "1 29890U 99025GL  25335.94305683  .00002085  00000+0  94751-3 0  9992", "line2": "2 29890  99.4675  96.6599 0014922 102.8991 257.3853 14.22969442972972"}}, "geometry": {"type": "Point", "coordinates": [32.063520206728406, 79.5795727073573]}}, {"type": "Feature", "properties": {"norad_id": 29891, "name": "FENGYUN 1C DEB", "group": "fengyun-1c-debris", "lat": 36.988405210792074, "lon": 165.695249369357, "alt_km": 928.5895828172788, "timestamp": "2025-12-02T10:50:47.546070+00:00", "meta": {"OBJECT_NAME": "FENGYUN 1C DEB", "OBJECT_ID": "1999-025GM", "EPOCH": "2025-12-02T00:07:54.672960", "MEAN_MOTION": 13.99978345, "ECCENTRICITY": 0.0061688, "INCLINATION": 98.7262, "RA_OF_ASC_NODE": 338.6262, "ARG_OF_PERICENTER": 290.3897, "MEAN_ANOMALY": 123.6106, "EPHEMERIS_TYPE": 0, "CLASSIFICATION_TYPE": "U", "NORAD_CAT_ID": 29891, "ELEMENT_SET_NO": 999, "REV_AT_EPOCH": 96338, "BSTAR": 0.00037942, "MEAN_MOTION_DOT": 5.25e-06, "MEAN_MOTION_DDOT": 0}, "tle": {"line1": "1 29891U 99025GM  25336.00549390  .00000525  00000+0  37942-3 0  9992", "line2": "2 29891  98.7262 338.6262 0061688 290.3897 123.6106 13.99978345963388"}}, "geometry": {"type": "Point", "coordinates": [165.695249369357, 36.988405210792074]}}]}